[{"OBJECT_NAME":"STARLINK-36440","OBJECT_ID":"2026-008C","EPOCH":"2026-03-09T09:51:38.257344","MEAN_MOTION":15.27607504,"ECCENTRICITY":0.00030507,"INCLINATION":42.9977,"RA_OF_ASC_NODE":206.4372,"ARG_OF_PERICENTER":295.2716,"MEAN_ANOMALY":64.7819,"EPHEMERIS_TYPE":0,"CLASSIFICATION_TYPE":"U","NORAD_CAT_ID":67447,"ELEMENT_SET_NO":999,"REV_AT_EPOCH":953,"BSTAR":0.0013657814,"MEAN_MOTION_DOT":0.00037547,"MEAN_MOTION_DDOT":0},{"OBJECT_NAME":"KUIPER-00209","OBJECT_ID":"2026-030N","EPOCH":"2026-03-09T14:49:43.575744","MEAN_MOTION":15.3016195,"ECCENTRICITY":0.0012191,"INCLINATION":51.8838,"RA_OF_ASC_NODE":220.0775,"ARG_OF_PERICENTER":59.1967,"MEAN_ANOMALY":301.0215,"EPHEMERIS_TYPE":0,"CLASSIFICATION_TYPE":"U","NORAD_CAT_ID":67776,"ELEMENT_SET_NO":999,"REV_AT_EPOCH":507,"BSTAR":0.0011963,"MEAN_MOTION_DOT":0.00035298,"MEAN_MOTION_DDOT":0}]
