STARLINK-36440          
1 67447U 26008C   26068.41085946  .00037547  00000+0  13658-2 0  9993
2 67447  42.9977 206.4372 0003050 295.2716  64.7819 15.27607504  9531
KUIPER-00209            
1 67776U 26030N   26068.61786546  .00035298  00000+0  11963-2 0  9997
2 67776  51.8838 220.0775 0012191  59.1967 301.0215 15.30161950  5077
